{
"type": "FeatureCollection",
"name": "SH1_Corridor_Addison-Rollston_OnlyMotorway_OnlySpeedChange",
"crs": { "type": "name", "properties": { "name": "urn:ogc:def:crs:OGC:1.3:CRS84" } },
"features": [
{ "type": "Feature", "properties": { "osm_id": "121195928", "code": 5111, "fclass": "motorway", "name": "Christchurch Southern Motorway", "ref": "SH 76", "oneway": "F", "maxspeed": 100, "layer": 0, "bridge": "F", "tunnel": "F" }, "geometry": { "type": "MultiLineString", "coordinates": [ [ [ 172.5783008, -43.5482428 ], [ 172.577818900000011, -43.5484528 ], [ 172.5774026, -43.5486379 ], [ 172.5768771, -43.5488841 ], [ 172.5765688, -43.5490326 ], [ 172.5761637, -43.5492361 ], [ 172.5754871, -43.5495896 ], [ 172.5747694, -43.5499873 ], [ 172.573239699999988, -43.5508887 ], [ 172.5729437, -43.5510601 ], [ 172.5725477, -43.5512991 ], [ 172.572259, -43.551479 ], [ 172.5719038, -43.5517197 ], [ 172.571635500000014, -43.5519138 ], [ 172.5713801, -43.5521122 ], [ 172.5711277, -43.5523137 ], [ 172.57089160000001, -43.5525194 ], [ 172.5707371, -43.55266 ], [ 172.5705822, -43.5528018 ], [ 172.5704553, -43.5529284 ], [ 172.5703096, -43.5530765 ], [ 172.570168700000011, -43.5532264 ], [ 172.570033599999988, -43.5533748 ], [ 172.5698856, -43.5535454 ], [ 172.569693, -43.5537805 ], [ 172.5695719, -43.5539362 ], [ 172.5694526, -43.5540944 ], [ 172.5692981, -43.5543148 ], [ 172.569138400000014, -43.554559 ], [ 172.5688831, -43.5549739 ], [ 172.5685872, -43.5554637 ], [ 172.5683732, -43.5558167 ], [ 172.5680878, -43.5562915 ], [ 172.567936800000012, -43.556536 ], [ 172.567829100000012, -43.5566972 ], [ 172.5677, -43.5568787 ], [ 172.567597799999987, -43.5570113 ], [ 172.5675779, -43.5570372 ], [ 172.567408199999988, -43.5572454 ], [ 172.5673624, -43.5572976 ], [ 172.5672738, -43.5573985 ], [ 172.5671336, -43.5575455 ], [ 172.566989799999988, -43.5576906 ], [ 172.5668403, -43.557836 ], [ 172.566605900000013, -43.5580429 ], [ 172.566445, -43.5581801 ], [ 172.5662762, -43.5583129 ], [ 172.5661014, -43.5584421 ], [ 172.565926600000012, -43.5585655 ], [ 172.5657167, -43.5587056 ], [ 172.5654405, -43.5588804 ], [ 172.564770900000013, -43.5592837 ], [ 172.5634636, -43.5600823 ], [ 172.5629725, -43.5603796 ], [ 172.561825, -43.5610734 ], [ 172.5615104, -43.5612606 ] ] ] } },
{ "type": "Feature", "properties": { "osm_id": "455684397", "code": 5111, "fclass": "motorway", "name": "Christchurch Southern Motorway", "ref": "SH 76", "oneway": "F", "maxspeed": 100, "layer": 0, "bridge": "F", "tunnel": "F" }, "geometry": { "type": "MultiLineString", "coordinates": [ [ [ 172.4459312, -43.5665055 ], [ 172.4464176, -43.566309 ], [ 172.446726, -43.5661981 ], [ 172.4471508, -43.5660631 ], [ 172.4475334, -43.565951 ], [ 172.4478365, -43.5658748 ], [ 172.448137800000012, -43.5658044 ], [ 172.448408699999987, -43.5657504 ], [ 172.4487747, -43.5656848 ], [ 172.4491433, -43.5656269 ], [ 172.4494905, -43.5655822 ], [ 172.449827, -43.5655483 ], [ 172.4501717, -43.5655221 ], [ 172.4505139, -43.5655096 ], [ 172.4508296, -43.5654975 ], [ 172.4510675, -43.5654973 ], [ 172.4513398, -43.5655036 ], [ 172.4516151, -43.5655087 ], [ 172.4519487, -43.5655269 ], [ 172.4523094, -43.565557 ], [ 172.4525683, -43.5655852 ], [ 172.452847600000013, -43.5656213 ], [ 172.4531369, -43.5656649 ], [ 172.4534251, -43.5657155 ], [ 172.4539885, -43.5658243 ], [ 172.454571499999986, -43.5659519 ], [ 172.4583472, -43.5667628 ], [ 172.4596977, -43.5670365 ], [ 172.460315799999989, -43.5671536 ], [ 172.460943500000013, -43.5672585 ], [ 172.46161330000001, -43.5673408 ], [ 172.4619707, -43.5673829 ], [ 172.4623436, -43.5674257 ], [ 172.4628974, -43.5674762 ], [ 172.4633039, -43.5675123 ], [ 172.4638014, -43.5675403 ], [ 172.4643418, -43.5675665 ], [ 172.4646999, -43.5675773 ], [ 172.465176, -43.5675841 ], [ 172.4656302, -43.5675831 ], [ 172.4660826, -43.5675753 ], [ 172.4666932, -43.5675534 ], [ 172.4671635, -43.5675306 ], [ 172.4675766, -43.5675054 ], [ 172.467967499999986, -43.5674769 ], [ 172.4688157, -43.5673965 ], [ 172.4696707, -43.5672899 ], [ 172.4705189, -43.5671555 ], [ 172.471408, -43.566992 ], [ 172.472136299999988, -43.566829 ], [ 172.4728576, -43.5666438 ], [ 172.4735767, -43.5664501 ], [ 172.4743052, -43.5662346 ], [ 172.479594, -43.5645832 ], [ 172.4804646, -43.5643161 ], [ 172.4811271, -43.5641159 ], [ 172.4818888, -43.563906 ], [ 172.482572800000014, -43.5637369 ], [ 172.4832504, -43.563577 ], [ 172.48423840000001, -43.5633715 ], [ 172.4852629, -43.563183 ], [ 172.4862367, -43.5630353 ], [ 172.4872839, -43.5628936 ], [ 172.488170599999989, -43.5627924 ], [ 172.4888626, -43.5627321 ], [ 172.4895412, -43.5626872 ], [ 172.490431699999988, -43.5626408 ], [ 172.4913345, -43.5626188 ], [ 172.4922038, -43.5626054 ], [ 172.4930388, -43.5626135 ], [ 172.49394190000001, -43.5626518 ], [ 172.4946717, -43.5626899 ], [ 172.495662, -43.5627651 ], [ 172.496649, -43.5628623 ], [ 172.4971037, -43.5629226 ], [ 172.4977477, -43.5630032 ], [ 172.4982233, -43.5630735 ], [ 172.4987095, -43.5631535 ], [ 172.4989171, -43.5631876 ], [ 172.4991054, -43.563221 ], [ 172.4995396, -43.5633004 ], [ 172.499951900000013, -43.5633811 ], [ 172.5003975, -43.5634724 ], [ 172.500747499999989, -43.5635477 ], [ 172.5009818, -43.5635993 ], [ 172.5012667, -43.5636654 ], [ 172.5016678, -43.5637602 ], [ 172.5020264, -43.5638515 ], [ 172.502360399999986, -43.5639343 ], [ 172.502751600000011, -43.5640275 ], [ 172.503148399999986, -43.564116 ], [ 172.5035595, -43.5642061 ], [ 172.5037993, -43.5642555 ], [ 172.5039773, -43.5642898 ], [ 172.5043432, -43.5643605 ], [ 172.5047461, -43.5644371 ], [ 172.5051434, -43.5645043 ], [ 172.505566, -43.564574 ], [ 172.50598930000001, -43.5646393 ], [ 172.5064562, -43.5647058 ], [ 172.506871499999988, -43.5647579 ], [ 172.5071185, -43.5647873 ], [ 172.5073778, -43.5648176 ], [ 172.5076293, -43.5648448 ], [ 172.5078768, -43.5648675 ], [ 172.5082232, -43.5648993 ], [ 172.5085504, -43.5649265 ], [ 172.5088902, -43.5649522 ], [ 172.5091716, -43.564971 ], [ 172.509518500000013, -43.5649908 ], [ 172.5099662, -43.5650161 ], [ 172.510306899999989, -43.5650341 ], [ 172.5108674, -43.5650659 ], [ 172.5115079, -43.5651002 ], [ 172.511843699999986, -43.5651199 ], [ 172.5121849, -43.5651374 ], [ 172.512491, -43.5651545 ], [ 172.51277970000001, -43.5651707 ], [ 172.5131542, -43.5651909 ], [ 172.513496300000014, -43.5652102 ], [ 172.5137963, -43.5652249 ], [ 172.5140978, -43.5652372 ], [ 172.5145315, -43.5652511 ], [ 172.5149524, -43.5652584 ], [ 172.515313600000013, -43.5652592 ], [ 172.5156165, -43.5652575 ], [ 172.5158315, -43.5652558 ], [ 172.515991, -43.5652525 ], [ 172.516196, -43.5652479 ], [ 172.5163849, -43.5652422 ], [ 172.516556, -43.5652371 ], [ 172.5167257, -43.5652309 ], [ 172.516906299999988, -43.5652235 ], [ 172.51708690000001, -43.5652149 ], [ 172.517253899999986, -43.5652059 ], [ 172.517431, -43.5651952 ], [ 172.5176433, -43.5651815 ], [ 172.5178295, -43.5651672 ], [ 172.5180498, -43.5651506 ], [ 172.5182288, -43.5651354 ], [ 172.51843550000001, -43.5651175 ], [ 172.5186304, -43.5650991 ], [ 172.518819900000011, -43.5650796 ], [ 172.519029, -43.5650573 ], [ 172.5191867, -43.5650393 ], [ 172.519359, -43.565018 ], [ 172.5195388, -43.5649956 ], [ 172.5196976, -43.5649761 ], [ 172.5198541, -43.5649551 ], [ 172.5200173, -43.5649341 ], [ 172.5202131, -43.5649044 ], [ 172.520393399999989, -43.5648774 ], [ 172.5205875, -43.5648478 ], [ 172.5207786, -43.5648161 ], [ 172.5209662, -43.5647858 ], [ 172.521152300000011, -43.5647527 ], [ 172.5215192, -43.5646866 ], [ 172.5218916, -43.5646138 ], [ 172.5222635, -43.5645366 ], [ 172.5225361, -43.5644779 ], [ 172.5228118, -43.5644213 ], [ 172.5230809, -43.5643666 ], [ 172.523432899999989, -43.5642983 ], [ 172.5237821, -43.5642339 ], [ 172.5241336, -43.5641706 ], [ 172.5244869, -43.5641124 ], [ 172.5246484, -43.5640845 ], [ 172.5248367, -43.5640551 ], [ 172.5251044, -43.5640156 ], [ 172.5253629, -43.5639777 ], [ 172.5255462, -43.5639526 ], [ 172.5257502, -43.5639258 ], [ 172.525933, -43.5639031 ], [ 172.526127300000013, -43.5638804 ], [ 172.52636050000001, -43.5638534 ], [ 172.5265722, -43.5638291 ], [ 172.5267303, -43.5638128 ], [ 172.5269686, -43.5637909 ], [ 172.5271945, -43.5637678 ], [ 172.527429500000011, -43.5637469 ], [ 172.5276413, -43.5637299 ], [ 172.527855499999987, -43.5637147 ], [ 172.5280579, -43.5636998 ], [ 172.528264400000012, -43.563685 ], [ 172.5284864, -43.5636719 ], [ 172.528711, -43.5636593 ], [ 172.5289146, -43.5636483 ], [ 172.5291236, -43.5636385 ], [ 172.529333799999989, -43.5636293 ], [ 172.5295585, -43.5636213 ], [ 172.5299622, -43.5636086 ], [ 172.5303026, -43.5636032 ], [ 172.530640799999986, -43.5635988 ], [ 172.5310222, -43.5635992 ], [ 172.531238699999989, -43.5635992 ], [ 172.5314419, -43.5636015 ], [ 172.531907499999988, -43.5636093 ], [ 172.5322793, -43.5636209 ], [ 172.5326236, -43.5636337 ], [ 172.5330102, -43.563652 ], [ 172.5333769, -43.5636728 ], [ 172.5337577, -43.5636984 ], [ 172.534130800000014, -43.5637282 ], [ 172.5345647, -43.5637677 ], [ 172.534981499999986, -43.5638083 ], [ 172.5354513, -43.5638596 ], [ 172.5359196, -43.5639138 ], [ 172.5365404, -43.5639867 ], [ 172.5369813, -43.5640384 ], [ 172.537360400000011, -43.5640825 ], [ 172.5378145, -43.5641354 ], [ 172.5383364, -43.5641966 ], [ 172.5387605, -43.5642454 ], [ 172.539206799999988, -43.5642972 ], [ 172.5396605, -43.5643493 ], [ 172.5400123, -43.5643865 ] ] ] } },
{ "type": "Feature", "properties": { "osm_id": "571619464", "code": 5111, "fclass": "motorway", "name": "Christchurch Southern Motorway", "ref": "SH 76", "oneway": "F", "maxspeed": 100, "layer": 0, "bridge": "F", "tunnel": "F" }, "geometry": { "type": "MultiLineString", "coordinates": [ [ [ 172.5333216, -43.563803 ], [ 172.5329501, -43.5637832 ], [ 172.5325306, -43.5637628 ], [ 172.532132, -43.5637482 ], [ 172.5315685, -43.5637352 ], [ 172.5310797, -43.5637308 ], [ 172.530653699999988, -43.5637301 ], [ 172.530196100000012, -43.563737 ], [ 172.529811099999989, -43.563744 ], [ 172.5295035, -43.563754 ], [ 172.5292053, -43.563764 ], [ 172.5287897, -43.5637836 ], [ 172.528327100000013, -43.56381 ], [ 172.527832, -43.5638444 ], [ 172.5273367, -43.5638855 ], [ 172.5270419, -43.5639116 ], [ 172.526753500000012, -43.5639417 ], [ 172.526497299999988, -43.5639679 ], [ 172.5262416, -43.5639959 ], [ 172.5259824, -43.5640279 ], [ 172.5257241, -43.5640598 ], [ 172.525495799999987, -43.5640901 ], [ 172.5252626, -43.5641218 ], [ 172.5250143, -43.5641572 ], [ 172.52475720000001, -43.5641943 ], [ 172.524545499999988, -43.5642261 ], [ 172.5243275, -43.5642615 ], [ 172.5241203, -43.5642951 ], [ 172.523910199999989, -43.5643315 ], [ 172.5236784, -43.5643724 ], [ 172.5234594, -43.564413 ], [ 172.523203, -43.5644629 ], [ 172.522946100000013, -43.5645133 ], [ 172.5226476, -43.5645756 ], [ 172.5223748, -43.5646337 ], [ 172.5221344, -43.5646842 ], [ 172.521906300000012, -43.5647311 ], [ 172.5215186, -43.5648064 ], [ 172.521286800000013, -43.5648484 ], [ 172.5210535, -43.5648908 ], [ 172.520823799999988, -43.5649295 ], [ 172.52059220000001, -43.5649664 ], [ 172.520322599999986, -43.5650083 ], [ 172.520095, -43.5650409 ], [ 172.5199156, -43.5650656 ], [ 172.5197346, -43.565091 ], [ 172.5195401, -43.5651158 ], [ 172.519347399999987, -43.5651388 ], [ 172.5191151, -43.5651666 ], [ 172.51888120000001, -43.565192 ], [ 172.518656099999987, -43.5652138 ], [ 172.5184612, -43.5652329 ], [ 172.5182649, -43.56525 ], [ 172.518052399999988, -43.5652672 ], [ 172.517858, -43.5652837 ], [ 172.5176404, -43.5652981 ], [ 172.5173938, -43.5653146 ], [ 172.5171427, -43.5653285 ], [ 172.5168927, -43.5653413 ], [ 172.51664550000001, -43.565352 ], [ 172.5164049, -43.5653594 ], [ 172.5161642, -43.5653668 ], [ 172.515916800000014, -43.5653718 ], [ 172.515663, -43.5653746 ], [ 172.5153242, -43.5653763 ], [ 172.5151246, -43.5653763 ], [ 172.514918099999988, -43.5653742 ], [ 172.51467550000001, -43.5653701 ], [ 172.514426, -43.5653645 ], [ 172.5141767, -43.5653577 ], [ 172.5139196, -43.5653474 ], [ 172.513649, -43.5653356 ], [ 172.5133399, -43.5653196 ], [ 172.5130911, -43.5653056 ], [ 172.5128329, -43.5652912 ], [ 172.512588099999988, -43.5652772 ], [ 172.512396, -43.5652679 ], [ 172.5121944, -43.565256 ], [ 172.5119204, -43.5652421 ], [ 172.5116215, -43.5652249 ], [ 172.511365, -43.56521 ], [ 172.5111403, -43.5651976 ], [ 172.5108801, -43.5651841 ], [ 172.5106233, -43.5651692 ], [ 172.510382600000014, -43.5651558 ], [ 172.510136499999987, -43.5651421 ], [ 172.5098889, -43.5651285 ], [ 172.509671200000014, -43.5651169 ], [ 172.5094484, -43.5651049 ], [ 172.5092251, -43.5650907 ], [ 172.5090121, -43.5650777 ], [ 172.5088283, -43.5650657 ], [ 172.5086297, -43.5650502 ], [ 172.508387199999987, -43.5650309 ], [ 172.508163599999989, -43.5650116 ], [ 172.507914, -43.5649892 ], [ 172.5076876, -43.5649672 ], [ 172.5074421, -43.564942 ], [ 172.5071878, -43.5649127 ], [ 172.506992700000012, -43.5648925 ], [ 172.5067799, -43.5648654 ], [ 172.506520099999989, -43.5648325 ], [ 172.5063073, -43.5648049 ], [ 172.5060665, -43.5647724 ], [ 172.505799, -43.5647345 ], [ 172.5054232, -43.5646787 ], [ 172.5050549, -43.5646193 ], [ 172.5047759, -43.564573 ], [ 172.5044593, -43.5645164 ], [ 172.504096299999986, -43.5644483 ], [ 172.5038164, -43.5643928 ], [ 172.503447099999988, -43.564318 ], [ 172.5031057, -43.5642445 ], [ 172.5028561, -43.5641865 ], [ 172.502576299999987, -43.5641232 ], [ 172.502273, -43.5640499 ], [ 172.5019356, -43.5639659 ], [ 172.5015306, -43.563863 ], [ 172.5012634, -43.5637968 ], [ 172.5009892, -43.5637312 ], [ 172.5007201, -43.5636688 ], [ 172.500443600000011, -43.5636076 ], [ 172.5001833, -43.5635519 ], [ 172.4999367, -43.5635006 ], [ 172.499688600000013, -43.5634518 ], [ 172.4994376, -43.5634033 ], [ 172.4991992, -43.5633594 ], [ 172.498968600000012, -43.5633182 ], [ 172.498739, -43.5632789 ], [ 172.49852820000001, -43.5632432 ], [ 172.4983255, -43.5632101 ], [ 172.4980492, -43.5631671 ], [ 172.49777610000001, -43.5631272 ], [ 172.4973295, -43.5630721 ], [ 172.4967499, -43.5629977 ], [ 172.4961504, -43.5629315 ], [ 172.495632300000011, -43.5628798 ], [ 172.4950186, -43.5628353 ], [ 172.494841900000011, -43.5628212 ], [ 172.494463, -43.5627976 ], [ 172.493726, -43.5627608 ], [ 172.492794800000013, -43.5627509 ], [ 172.492003399999987, -43.5627399 ], [ 172.4913434, -43.5627489 ], [ 172.490429, -43.5627749 ], [ 172.4894588, -43.5628258 ], [ 172.488540699999987, -43.5629012 ], [ 172.4875982, -43.5630032 ], [ 172.4864647, -43.5631422 ], [ 172.48535, -43.5633092 ], [ 172.4843323, -43.5634959 ], [ 172.483320600000013, -43.5637035 ], [ 172.481451600000014, -43.564182 ], [ 172.4805236, -43.5644424 ], [ 172.479624699999988, -43.5647198 ], [ 172.4747974, -43.5661962 ], [ 172.4743344, -43.5663393 ], [ 172.473814, -43.5664996 ], [ 172.4732481, -43.566658 ], [ 172.4727222, -43.5668005 ], [ 172.4721538, -43.5669345 ], [ 172.471421099999986, -43.567096 ], [ 172.4709401, -43.5671886 ], [ 172.4704385, -43.5672779 ], [ 172.469945, -43.5673577 ], [ 172.469394200000011, -43.5674336 ], [ 172.4688453, -43.5675034 ], [ 172.4683182, -43.5675637 ], [ 172.467733399999986, -43.5676172 ], [ 172.4671863, -43.5676531 ], [ 172.4666078, -43.5676796 ], [ 172.4660437, -43.5676987 ], [ 172.465397599999989, -43.5677031 ], [ 172.464846099999988, -43.5676987 ], [ 172.464323, -43.5676852 ], [ 172.4637812, -43.5676647 ], [ 172.4630936, -43.5676257 ], [ 172.462787100000014, -43.5676016 ], [ 172.4624858, -43.5675724 ], [ 172.4616538, -43.5674879 ], [ 172.4611353, -43.5674189 ], [ 172.4606296, -43.5673392 ], [ 172.4601053, -43.567252 ], [ 172.4593395, -43.5671011 ], [ 172.458312799999987, -43.5668792 ], [ 172.45453040000001, -43.5660686 ], [ 172.4539537, -43.5659525 ], [ 172.4534562, -43.5658586 ], [ 172.453126200000014, -43.565802 ], [ 172.4527845, -43.5657543 ], [ 172.4524049, -43.5657083 ], [ 172.4521091, -43.565682 ], [ 172.45181, -43.5656615 ], [ 172.4514461, -43.5656464 ], [ 172.4510809, -43.5656388 ], [ 172.4507773, -43.5656441 ], [ 172.4505416, -43.5656506 ], [ 172.4502989, -43.565663 ], [ 172.450040800000011, -43.5656751 ], [ 172.449730100000011, -43.5657003 ], [ 172.449452, -43.5657304 ], [ 172.4491946, -43.5657606 ], [ 172.4488685, -43.5658085 ], [ 172.448538, -43.5658654 ], [ 172.44823980000001, -43.5659219 ], [ 172.4479782, -43.5659756 ], [ 172.447721199999989, -43.5660343 ], [ 172.4474189, -43.5661117 ], [ 172.447055299999988, -43.5662196 ], [ 172.4467563, -43.5663156 ], [ 172.446452599999986, -43.5664225 ], [ 172.446084, -43.566561 ], [ 172.445759399999986, -43.5666889 ], [ 172.445328, -43.5668689 ], [ 172.4443215, -43.5672891 ] ] ] } },
{ "type": "Feature", "properties": { "osm_id": "599507769", "code": 5111, "fclass": "motorway", "name": "Christchurch Southern Motorway", "ref": "SH 76", "oneway": "F", "maxspeed": 100, "layer": 0, "bridge": "F", "tunnel": "F" }, "geometry": { "type": "MultiLineString", "coordinates": [ [ [ 172.5400123, -43.5643865 ], [ 172.5402967, -43.5644151 ], [ 172.540661, -43.5644489 ], [ 172.5410317, -43.5644807 ], [ 172.541401, -43.5645104 ], [ 172.541688599999986, -43.5645321 ], [ 172.541978300000011, -43.5645535 ], [ 172.542336, -43.5645763 ], [ 172.542627, -43.5645944 ], [ 172.5430895, -43.5646183 ], [ 172.5435149, -43.5646376 ], [ 172.5439452, -43.5646544 ], [ 172.544341800000012, -43.5646669 ], [ 172.5448097, -43.56468 ], [ 172.5452583, -43.5646927 ], [ 172.545591800000011, -43.5647018 ], [ 172.54581060000001, -43.564708 ], [ 172.546185799999989, -43.5647183 ], [ 172.5466031, -43.56473 ], [ 172.5469201, -43.5647365 ], [ 172.5472308, -43.564742 ], [ 172.54755080000001, -43.5647424 ], [ 172.5480397, -43.5647363 ], [ 172.5482998, -43.5647319 ], [ 172.5486478, -43.5647202 ], [ 172.5488954, -43.5647107 ], [ 172.549212899999986, -43.5646941 ], [ 172.549539399999986, -43.5646732 ], [ 172.5498976, -43.5646468 ], [ 172.5502667, -43.5646157 ], [ 172.5505373, -43.5645894 ], [ 172.5508786, -43.5645534 ], [ 172.551279599999987, -43.5645061 ], [ 172.5516364, -43.5644581 ], [ 172.5518715, -43.5644243 ], [ 172.5521253, -43.5643866 ], [ 172.5524239, -43.5643393 ], [ 172.552720599999986, -43.5642877 ], [ 172.552953699999989, -43.5642451 ], [ 172.553329, -43.5641735 ], [ 172.5536215, -43.5641145 ], [ 172.553896400000014, -43.564056 ], [ 172.554365, -43.5639494 ], [ 172.5548403, -43.5638323 ], [ 172.555327, -43.5637021 ], [ 172.5557727, -43.5635753 ], [ 172.556237399999986, -43.5634348 ], [ 172.556694099999987, -43.5632878 ], [ 172.5571383, -43.5631371 ], [ 172.5575943, -43.5629732 ], [ 172.5579234, -43.5628485 ], [ 172.5582445, -43.56272 ], [ 172.5588627, -43.5624615 ], [ 172.5593759, -43.5622282 ], [ 172.5599372, -43.5619626 ], [ 172.5603193, -43.5617695 ], [ 172.5606398, -43.5616016 ], [ 172.5611336, -43.561331 ], [ 172.5612501, -43.5612621 ] ] ] } },
{ "type": "Feature", "properties": { "osm_id": "626199926", "code": 5111, "fclass": "motorway", "name": "Main South Road", "ref": "SH 1", "oneway": "F", "maxspeed": 100, "layer": 0, "bridge": "F", "tunnel": "F" }, "geometry": { "type": "MultiLineString", "coordinates": [ [ [ 172.441778, -43.5683514 ], [ 172.4408325, -43.5687472 ], [ 172.4401851, -43.569017 ], [ 172.4391119, -43.5694884 ], [ 172.4380188, -43.5699612 ], [ 172.436970800000012, -43.5704152 ], [ 172.4348244, -43.5713394 ], [ 172.4311827, -43.572899 ], [ 172.4307107, -43.5730995 ], [ 172.4266423, -43.5748492 ], [ 172.4246708, -43.5756938 ], [ 172.4236735, -43.5761251 ], [ 172.4209065, -43.5773471 ], [ 172.4160469, -43.5794545 ], [ 172.4130452, -43.5806977 ], [ 172.4118197, -43.581224 ], [ 172.41100990000001, -43.5814954 ], [ 172.4101651, -43.5817712 ], [ 172.4093504, -43.582009 ], [ 172.4078443, -43.5823488 ], [ 172.4053872, -43.5828503 ], [ 172.403821099999988, -43.5831766 ], [ 172.4020078, -43.5835552 ] ] ] } },
{ "type": "Feature", "properties": { "osm_id": "681056755", "code": 5111, "fclass": "motorway", "name": "Christchurch Southern Motorway", "ref": "SH 76", "oneway": "F", "maxspeed": 100, "layer": 0, "bridge": "F", "tunnel": "F" }, "geometry": { "type": "MultiLineString", "coordinates": [ [ [ 172.5455565, -43.5648202 ], [ 172.544568199999986, -43.5647924 ], [ 172.5438167, -43.5647692 ], [ 172.5434964, -43.5647568 ], [ 172.5431771, -43.5647411 ], [ 172.5428284, -43.5647231 ] ] ] } },
{ "type": "Feature", "properties": { "osm_id": "760458889", "code": 5111, "fclass": "motorway", "name": "Christchurch Southern Motorway", "ref": "SH 76", "oneway": "F", "maxspeed": 100, "layer": 0, "bridge": "F", "tunnel": "F" }, "geometry": { "type": "MultiLineString", "coordinates": [ [ [ 172.5726182, -43.5511012 ], [ 172.5729332, -43.5509141 ], [ 172.5737993, -43.5503951 ] ] ] } },
{ "type": "Feature", "properties": { "osm_id": "760458890", "code": 5111, "fclass": "motorway", "name": "Christchurch Southern Motorway", "ref": "SH 76", "oneway": "F", "maxspeed": 100, "layer": 0, "bridge": "F", "tunnel": "F" }, "geometry": { "type": "MultiLineString", "coordinates": [ [ [ 172.5737993, -43.5503951 ], [ 172.5756139, -43.5493756 ], [ 172.576019800000012, -43.5491616 ], [ 172.5763791, -43.5489883 ], [ 172.5766607, -43.5488468 ], [ 172.5771712, -43.5486038 ], [ 172.5781397, -43.548173 ] ] ] } },
{ "type": "Feature", "properties": { "osm_id": "809116788", "code": 5111, "fclass": "motorway", "name": "Christchurch Southern Motorway", "ref": "SH 76", "oneway": "F", "maxspeed": 100, "layer": 0, "bridge": "F", "tunnel": "F" }, "geometry": { "type": "MultiLineString", "coordinates": [ [ [ 172.5428284, -43.5647231 ], [ 172.5423441, -43.5646954 ], [ 172.5419676, -43.5646712 ], [ 172.541666099999986, -43.5646499 ], [ 172.5411107, -43.5646063 ], [ 172.5408734, -43.5645856 ], [ 172.540607200000011, -43.5645624 ], [ 172.540381599999989, -43.5645412 ], [ 172.540213200000011, -43.5645254 ] ] ] } },
{ "type": "Feature", "properties": { "osm_id": "813030400", "code": 5111, "fclass": "motorway", "name": "Main South Road", "ref": "SH 1", "oneway": "F", "maxspeed": 100, "layer": 0, "bridge": "F", "tunnel": "F" }, "geometry": { "type": "MultiLineString", "coordinates": [ [ [ 172.403184900000014, -43.5832029 ], [ 172.4056884, -43.5826797 ], [ 172.407848699999988, -43.5822134 ], [ 172.4090251, -43.581956 ], [ 172.4100291, -43.5816735 ], [ 172.4111057, -43.5813608 ], [ 172.4118592, -43.58108 ], [ 172.4125114, -43.5807923 ], [ 172.4145684, -43.5799197 ], [ 172.4159162, -43.5793436 ], [ 172.4207606, -43.5772662 ], [ 172.4235916, -43.5760399 ], [ 172.4245642, -43.5756242 ], [ 172.426689399999987, -43.5747063 ], [ 172.428501, -43.5739266 ], [ 172.431116800000012, -43.5728033 ], [ 172.434757499999989, -43.5712367 ], [ 172.436970800000012, -43.5702967 ], [ 172.4381215, -43.5697902 ], [ 172.4401899, -43.5689013 ], [ 172.443076, -43.567697 ], [ 172.444081399999988, -43.5672771 ] ] ] } },
{ "type": "Feature", "properties": { "osm_id": "876483644", "code": 5111, "fclass": "motorway", "name": "Christchurch Southern Motorway", "ref": "SH 76", "oneway": "F", "maxspeed": 100, "layer": 0, "bridge": "F", "tunnel": "F" }, "geometry": { "type": "MultiLineString", "coordinates": [ [ [ 172.540213200000011, -43.5645254 ], [ 172.539712400000013, -43.5644728 ], [ 172.539352400000013, -43.564434 ], [ 172.5390076, -43.5643945 ], [ 172.5387637, -43.5643654 ], [ 172.5362726, -43.5640731 ] ] ] } },
{ "type": "Feature", "properties": { "osm_id": "939213012", "code": 5111, "fclass": "motorway", "name": "Christchurch Southern Motorway", "ref": "SH 76", "oneway": "F", "maxspeed": 100, "layer": 0, "bridge": "F", "tunnel": "F" }, "geometry": { "type": "MultiLineString", "coordinates": [ [ [ 172.5362726, -43.5640731 ], [ 172.5360163, -43.5640433 ], [ 172.5354413, -43.5639777 ], [ 172.5351245, -43.563943 ], [ 172.5348578, -43.5639174 ], [ 172.534592300000014, -43.5638931 ], [ 172.5341177, -43.5638557 ], [ 172.5337993, -43.5638323 ], [ 172.533522299999987, -43.5638141 ], [ 172.5333216, -43.563803 ] ] ] } },
{ "type": "Feature", "properties": { "osm_id": "1030221983", "code": 5111, "fclass": "motorway", "name": "Main South Road", "ref": "SH 1", "oneway": "F", "maxspeed": 100, "layer": 0, "bridge": "F", "tunnel": "F" }, "geometry": { "type": "MultiLineString", "coordinates": [ [ [ 172.4442608, -43.5672004 ], [ 172.4451972, -43.5668098 ], [ 172.4456451, -43.5666211 ], [ 172.4459312, -43.5665055 ] ] ] } },
{ "type": "Feature", "properties": { "osm_id": "1030221984", "code": 5111, "fclass": "motorway", "name": "Main South Road", "ref": "SH 1", "oneway": "F", "maxspeed": 100, "layer": 1, "bridge": "T", "tunnel": "F" }, "geometry": { "type": "MultiLineString", "coordinates": [ [ [ 172.444081399999988, -43.5672771 ], [ 172.4442608, -43.5672004 ] ] ] } },
{ "type": "Feature", "properties": { "osm_id": "1030221985", "code": 5111, "fclass": "motorway", "name": "Christchurch Southern Motorway", "ref": "SH 76", "oneway": "F", "maxspeed": 100, "layer": 0, "bridge": "F", "tunnel": "F" }, "geometry": { "type": "MultiLineString", "coordinates": [ [ [ 172.444139799999988, -43.5673667 ], [ 172.441778, -43.5683514 ] ] ] } },
{ "type": "Feature", "properties": { "osm_id": "1030221986", "code": 5111, "fclass": "motorway", "name": "Christchurch Southern Motorway", "ref": "SH 76", "oneway": "F", "maxspeed": 100, "layer": 1, "bridge": "T", "tunnel": "F" }, "geometry": { "type": "MultiLineString", "coordinates": [ [ [ 172.4443215, -43.5672891 ], [ 172.444139799999988, -43.5673667 ] ] ] } },
{ "type": "Feature", "properties": { "osm_id": "1030221991", "code": 5111, "fclass": "motorway", "name": "Christchurch Southern Motorway", "ref": "SH 76", "oneway": "F", "maxspeed": 100, "layer": 0, "bridge": "F", "tunnel": "F" }, "geometry": { "type": "MultiLineString", "coordinates": [ [ [ 172.5614095, -43.5611689 ], [ 172.5619996, -43.5608151 ], [ 172.5624819, -43.5605222 ], [ 172.5630387, -43.5601928 ], [ 172.5633498, -43.5599951 ], [ 172.5645683, -43.5592587 ], [ 172.5652322, -43.5588541 ], [ 172.5655128, -43.55868 ], [ 172.565699599999988, -43.5585585 ], [ 172.5658951, -43.5584268 ], [ 172.566081700000012, -43.55829 ], [ 172.5662525, -43.5581575 ], [ 172.5664356, -43.5580115 ], [ 172.5665788, -43.5578863 ], [ 172.566713099999987, -43.5577666 ], [ 172.56678740000001, -43.5576944 ], [ 172.567080299999986, -43.5574009 ], [ 172.5672181, -43.5572495 ], [ 172.5673629, -43.5570744 ], [ 172.567470899999989, -43.5569404 ], [ 172.5675889, -43.5567819 ], [ 172.5676592, -43.556681 ], [ 172.5677536, -43.5565395 ], [ 172.5678586, -43.5563774 ], [ 172.568110100000013, -43.5559655 ], [ 172.56821, -43.5558 ], [ 172.5683099, -43.5556351 ], [ 172.568508, -43.5553066 ], [ 172.568757, -43.5548942 ], [ 172.5690765, -43.5543807 ], [ 172.5692221, -43.5541609 ], [ 172.5693091, -43.5540408 ], [ 172.5693982, -43.5539198 ], [ 172.5694982, -43.5537907 ], [ 172.569601799999987, -43.5536591 ], [ 172.569701400000014, -43.5535388 ], [ 172.569776600000012, -43.5534526 ], [ 172.569908700000013, -43.5532987 ], [ 172.5700569, -43.5531347 ], [ 172.5702, -43.5529853 ], [ 172.5703485, -43.5528374 ], [ 172.5704735, -43.5527136 ], [ 172.5706274, -43.5525714 ], [ 172.5709139, -43.5523186 ], [ 172.5711255, -43.5521406 ], [ 172.571293700000012, -43.5520057 ], [ 172.5715505, -43.5518106 ], [ 172.5717601, -43.5516603 ], [ 172.5719033, -43.5515593 ], [ 172.572178400000013, -43.5513764 ], [ 172.572365100000013, -43.5512549 ], [ 172.5726182, -43.5511012 ] ] ] } },
{ "type": "Feature", "properties": { "osm_id": "1030221992", "code": 5111, "fclass": "motorway", "name": "Christchurch Southern Motorway", "ref": "SH 76", "oneway": "F", "maxspeed": 100, "layer": 1, "bridge": "T", "tunnel": "F" }, "geometry": { "type": "MultiLineString", "coordinates": [ [ [ 172.5612501, -43.5612621 ], [ 172.5614095, -43.5611689 ] ] ] } },
{ "type": "Feature", "properties": { "osm_id": "1030221993", "code": 5111, "fclass": "motorway", "name": "Christchurch Southern Motorway", "ref": "SH 76", "oneway": "F", "maxspeed": 100, "layer": 0, "bridge": "F", "tunnel": "F" }, "geometry": { "type": "MultiLineString", "coordinates": [ [ [ 172.5613512, -43.5613538 ], [ 172.5612138, -43.5614337 ], [ 172.560918500000014, -43.5615959 ], [ 172.560617900000011, -43.5617575 ], [ 172.5603173, -43.5619144 ], [ 172.5600605, -43.5620412 ], [ 172.559741699999989, -43.562196 ], [ 172.5594913, -43.5623143 ], [ 172.55918, -43.5624584 ], [ 172.55867, -43.5626783 ], [ 172.558241900000013, -43.5628534 ], [ 172.558179200000012, -43.5628778 ], [ 172.557776100000012, -43.5630351 ], [ 172.5572218, -43.5632361 ], [ 172.5568233, -43.5633722 ], [ 172.5564765, -43.5634864 ], [ 172.5561643, -43.5635846 ], [ 172.5557925, -43.5636953 ], [ 172.555316, -43.5638312 ], [ 172.554642, -43.5640054 ], [ 172.554263600000013, -43.564095 ], [ 172.5538809, -43.5641814 ], [ 172.5535787, -43.5642447 ], [ 172.5532904, -43.5643026 ], [ 172.55293, -43.5643701 ], [ 172.5525638, -43.5644356 ], [ 172.5522066, -43.5644939 ], [ 172.551840700000014, -43.5645486 ], [ 172.551418399999989, -43.5646071 ], [ 172.550990399999989, -43.5646598 ], [ 172.5506205, -43.5646993 ], [ 172.5502464, -43.5647357 ], [ 172.5498178, -43.5647716 ], [ 172.549391500000013, -43.5648009 ], [ 172.5490096, -43.5648224 ], [ 172.5486382, -43.5648399 ], [ 172.548148200000014, -43.5648529 ], [ 172.547847, -43.5648571 ], [ 172.5475291, -43.5648596 ], [ 172.5472814, -43.5648588 ], [ 172.5470315, -43.5648563 ], [ 172.546569799999986, -43.5648467 ], [ 172.5462852, -43.5648397 ], [ 172.5455565, -43.5648202 ] ] ] } },
{ "type": "Feature", "properties": { "osm_id": "1030221994", "code": 5111, "fclass": "motorway", "name": "Christchurch Southern Motorway", "ref": "SH 76", "oneway": "F", "maxspeed": 100, "layer": 1, "bridge": "T", "tunnel": "F" }, "geometry": { "type": "MultiLineString", "coordinates": [ [ [ 172.5615104, -43.5612606 ], [ 172.5613512, -43.5613538 ] ] ] } }
]
}
